[{"OBJECT_NAME":"STARLINK-4295","OBJECT_ID":"2022-076L","EPOCH":"2026-03-09T09:24:54.541152","MEAN_MOTION":15.08837235,"ECCENTRICITY":0.00013716,"INCLINATION":53.2177,"RA_OF_ASC_NODE":95.7345,"ARG_OF_PERICENTER":93.9576,"MEAN_ANOMALY":266.1573,"EPHEMERIS_TYPE":0,"CLASSIFICATION_TYPE":"U","NORAD_CAT_ID":52996,"ELEMENT_SET_NO":999,"REV_AT_EPOCH":20279,"BSTAR":4.4123164e-5,"MEAN_MOTION_DOT":4.14e-6,"MEAN_MOTION_DDOT":0},{"OBJECT_NAME":"OBJECT A","OBJECT_ID":"2024-205A","EPOCH":"2026-03-09T23:47:25.060128","MEAN_MOTION":15.10420635,"ECCENTRICITY":0.00183963,"INCLINATION":97.4208,"RA_OF_ASC_NODE":142.0688,"ARG_OF_PERICENTER":137.3438,"MEAN_ANOMALY":222.9224,"EPHEMERIS_TYPE":0,"CLASSIFICATION_TYPE":"U","NORAD_CAT_ID":61894,"ELEMENT_SET_NO":999,"REV_AT_EPOCH":7322,"BSTAR":0.00061451018,"MEAN_MOTION_DOT":0.00010084,"MEAN_MOTION_DDOT":0}]
